start=new Date('2021-09-02T00:00:00.000Z').valueOf();
sats=[{"MEAN_ELEMENT_THEORY":"SGP4","COUNTRY_CODE":"US","BSTAR":"0.00004164300000","GP_ID":"183876247","LAUNCH_DATE":"2020-09-03","MEAN_MOTION_DOT":"0.00000339","FILE":"3106942","REF_FRAME":"TEME","PERIAPSIS":"546.527","RA_OF_ASC_NODE":"225.2098","MEAN_ANOMALY":"302.6242","DECAY_DATE":null,"EPHEMERIS_TYPE":"0","NORAD_CAT_ID":"46383","OBJECT_ID":"2020-062BL","RCS_SIZE":"LARGE","CLASSIFICATION_TYPE":"U","INCLINATION":"53.0540","TLE_LINE1":"1 46383U 20062BL  21244.36709321  .00000339  00000-0  41643-4 0  9995","TIME_SYSTEM":"UTC","TLE_LINE2":"2 46383  53.0540 225.2098 0000953  57.4839 302.6242 15.06408795 55569","ARG_OF_PERICENTER":"57.4839","MEAN_MOTION":"15.06408795","SITE":"AFETR","CENTER_NAME":"EARTH","ELEMENT_SET_NO":"999","REV_AT_EPOCH":"5556","MEAN_MOTION_DDOT":"0.0000000000000","OBJECT_NAME":"STARLINK-1770","ECCENTRICITY":"0.00009530","EPOCH":"2021-09-01T08:48:36.853344","OBJECT_TYPE":"PAYLOAD","PERIOD":"95.592","APOAPSIS":"547.847","SEMIMAJOR_AXIS":"6925.322"},{"OBJECT_NAME":"STARLINK-1771","MEAN_MOTION_DDOT":"0.0000000000000","REV_AT_EPOCH":"5557","ELEMENT_SET_NO":"999","SITE":"AFETR","CENTER_NAME":"EARTH","MEAN_MOTION":"15.06397416","ARG_OF_PERICENTER":"35.7929","TLE_LINE2":"2 46384  53.0531 224.8864 0000750  35.7929 324.3111 15.06397416 55574","TIME_SYSTEM":"UTC","TLE_LINE1":"1 46384U 20062BM  21244.43713424 -.00000638  00000-0 -23981-4 0  9992","CLASSIFICATION_TYPE":"U","INCLINATION":"53.0531","RCS_SIZE":"LARGE","SEMIMAJOR_AXIS":"6925.356","APOAPSIS":"547.741","PERIOD":"95.592","OBJECT_TYPE":"PAYLOAD","EPOCH":"2021-09-01T10:29:28.398336","ECCENTRICITY":"0.00007500","REF_FRAME":"TEME","FILE":"3106942","MEAN_MOTION_DOT":"-0.00000638","LAUNCH_DATE":"2020-09-03","GP_ID":"183876497","BSTAR":"-0.00002398100000","COUNTRY_CODE":"US","MEAN_ELEMENT_THEORY":"SGP4","OBJECT_ID":"2020-062BM","NORAD_CAT_ID":"46384","EPHEMERIS_TYPE":"0","DECAY_DATE":null,"MEAN_ANOMALY":"324.3111","RA_OF_ASC_NODE":"224.8864","PERIAPSIS":"546.702"},{"CENTER_NAME":"EARTH","SITE":"AFETR","ELEMENT_SET_NO":"999","REV_AT_EPOCH":"5081","MEAN_MOTION_DDOT":"0.0000000000000","OBJECT_NAME":"STARLINK-1644","MEAN_MOTION":"15.06393610","CLASSIFICATION_TYPE":"U","INCLINATION":"53.0553","TLE_LINE1":"1 46532U 20070A   21244.70252508 -.00000889  00000-0 -40786-4 0  9997","TIME_SYSTEM":"UTC","TLE_LINE2":"2 46532  53.0553  23.7088 0001386 103.2869 256.8274 15.06393610 50810","ARG_OF_PERICENTER":"103.2869","RCS_SIZE":"LARGE","SEMIMAJOR_AXIS":"6925.368","APOAPSIS":"548.193","PERIOD":"95.593","OBJECT_TYPE":"PAYLOAD","ECCENTRICITY":"0.00013860","EPOCH":"2021-09-01T16:51:38.166912","MEAN_MOTION_DOT":"-0.00000889","FILE":"3107096","REF_FRAME":"TEME","LAUNCH_DATE":"2020-10-06","BSTAR":"-0.00004078600000","GP_ID":"183926528","MEAN_ELEMENT_THEORY":"SGP4","COUNTRY_CODE":"US","NORAD_CAT_ID":"46532","OBJECT_ID":"2020-070A","DECAY_DATE":null,"EPHEMERIS_TYPE":"0","RA_OF_ASC_NODE":"23.7088","MEAN_ANOMALY":"256.8274","PERIAPSIS":"546.273"},{"BSTAR":"0.00012504000000","GP_ID":"183927277","COUNTRY_CODE":"US","MEAN_ELEMENT_THEORY":"SGP4","MEAN_MOTION_DOT":"0.00001581","REF_FRAME":"TEME","FILE":"3107096","LAUNCH_DATE":"2020-10-06","RA_OF_ASC_NODE":"23.0688","MEAN_ANOMALY":"259.7407","PERIAPSIS":"546.390","OBJECT_ID":"2020-070B","NORAD_CAT_ID":"46533","EPHEMERIS_TYPE":"0","DECAY_DATE":null,"TLE_LINE1":"1 46533U 20070B   21244.84628215  .00001581  00000-0  12504-3 0  9999","TIME_SYSTEM":"UTC","INCLINATION":"53.0569","CLASSIFICATION_TYPE":"U","ARG_OF_PERICENTER":"100.3721","TLE_LINE2":"2 46533  53.0569  23.0688 0001233 100.3721 259.7407 15.06390160 50832","RCS_SIZE":"LARGE","REV_AT_EPOCH":"5083","ELEMENT_SET_NO":"999","CENTER_NAME":"EARTH","SITE":"AFETR","OBJECT_NAME":"STARLINK-1648","MEAN_MOTION_DDOT":"0.0000000000000","MEAN_MOTION":"15.06390160","OBJECT_TYPE":"PAYLOAD","PERIOD":"95.593","EPOCH":"2021-09-01T20:18:38.777760","ECCENTRICITY":"0.00012330","SEMIMAJOR_AXIS":"6925.379","APOAPSIS":"548.098"},{"CLASSIFICATION_TYPE":"U","INCLINATION":"53.0568","TLE_LINE1":"1 46534U 20070C   21244.82785571  .00001069  00000-0  90681-4 0  9991","TIME_SYSTEM":"UTC","TLE_LINE2":"2 46534  53.0568  23.1465 0001252 116.9205 243.1912 15.06383500 50835","ARG_OF_PERICENTER":"116.9205","RCS_SIZE":"LARGE","CENTER_NAME":"EARTH","SITE":"AFETR","REV_AT_EPOCH":"5083","ELEMENT_SET_NO":"999","MEAN_MOTION_DDOT":"0.0000000000000","OBJECT_NAME":"STARLINK-1659","MEAN_MOTION":"15.06383500","PERIOD":"95.593","OBJECT_TYPE":"PAYLOAD","ECCENTRICITY":"0.00012520","EPOCH":"2021-09-01T19:52:06.733344","SEMIMAJOR_AXIS":"6925.399","APOAPSIS":"548.131","BSTAR":"0.00009068100000","GP_ID":"183928030","MEAN_ELEMENT_THEORY":"SGP4","COUNTRY_CODE":"US","MEAN_MOTION_DOT":"0.00001069","FILE":"3107096","REF_FRAME":"TEME","LAUNCH_DATE":"2020-10-06","RA_OF_ASC_NODE":"23.1465","MEAN_ANOMALY":"243.1912","PERIAPSIS":"546.397","NORAD_CAT_ID":"46534","OBJECT_ID":"2020-070C","DECAY_DATE":null,"EPHEMERIS_TYPE":"0"},{"REF_FRAME":"TEME","FILE":"3107096","MEAN_MOTION_DOT":"0.00001118","LAUNCH_DATE":"2020-10-06","GP_ID":"183926279","BSTAR":"0.00009399900000","COUNTRY_CODE":"US","MEAN_ELEMENT_THEORY":"SGP4","OBJECT_ID":"2020-070D","NORAD_CAT_ID":"46535","EPHEMERIS_TYPE":"0","DECAY_DATE":null,"MEAN_ANOMALY":"247.6383","RA_OF_ASC_NODE":"23.7949","PERIAPSIS":"546.314","OBJECT_NAME":"STARLINK-1663","MEAN_MOTION_DDOT":"0.0000000000000","ELEMENT_SET_NO":"999","REV_AT_EPOCH":"5080","SITE":"AFETR","CENTER_NAME":"EARTH","MEAN_MOTION":"15.06375506","ARG_OF_PERICENTER":"112.4755","TLE_LINE2":"2 46535  53.0554  23.7949 0001407 112.4755 247.6383 15.06375506 50802","TLE_LINE1":"1 46535U 20070D   21244.68411329  .00001118  00000-0  93999-4 0  9993","TIME_SYSTEM":"UTC","INCLINATION":"53.0554","CLASSIFICATION_TYPE":"U","RCS_SIZE":"LARGE","SEMIMAJOR_AXIS":"6925.424","APOAPSIS":"548.263","PERIOD":"95.594","OBJECT_TYPE":"PAYLOAD","EPOCH":"2021-09-01T16:25:07.388256","ECCENTRICITY":"0.00014070"},{"MEAN_MOTION":"15.42197476","CENTER_NAME":"EARTH","SITE":"AFETR","REV_AT_EPOCH":"5091","ELEMENT_SET_NO":"999","MEAN_MOTION_DDOT":"0.0000000000000","OBJECT_NAME":"STARLINK-1668","RCS_SIZE":"LARGE","INCLINATION":"53.0579","CLASSIFICATION_TYPE":"U","TLE_LINE1":"1 46536U 20070E   21244.68612727  .00008756  00000-0  21017-3 0  9995","TIME_SYSTEM":"UTC","TLE_LINE2":"2 46536  53.0579  16.4449 0001724  41.6119 318.5017 15.42197476 50915","ARG_OF_PERICENTER":"41.6119","APOAPSIS":"440.803","SEMIMAJOR_AXIS":"6817.762","ECCENTRICITY":"0.00017240","EPOCH":"2021-09-01T16:28:01.396128","PERIOD":"93.373","OBJECT_TYPE":"PAYLOAD","LAUNCH_DATE":"2020-10-06","MEAN_MOTION_DOT":"0.00008756","FILE":"3107096","REF_FRAME":"TEME","MEAN_ELEMENT_THEORY":"SGP4","COUNTRY_CODE":"US","BSTAR":"0.00021017000000","GP_ID":"183927028","DECAY_DATE":null,"EPHEMERIS_TYPE":"0","NORAD_CAT_ID":"46536","OBJECT_ID":"2020-070E","PERIAPSIS":"438.452","RA_OF_ASC_NODE":"16.4449","MEAN_ANOMALY":"318.5017"},{"NORAD_CAT_ID":"46537","OBJECT_ID":"2020-070F","DECAY_DATE":null,"EPHEMERIS_TYPE":"0","RA_OF_ASC_NODE":"23.6744","MEAN_ANOMALY":"248.6761","PERIAPSIS":"546.419","MEAN_MOTION_DOT":"0.00000158","FILE":"3107096","REF_FRAME":"TEME","LAUNCH_DATE":"2020-10-06","BSTAR":"0.00002949600000","GP_ID":"183927777","MEAN_ELEMENT_THEORY":"SGP4","COUNTRY_CODE":"US","SEMIMAJOR_AXIS":"6925.346","APOAPSIS":"548.003","PERIOD":"95.592","OBJECT_TYPE":"PAYLOAD","ECCENTRICITY":"0.00011430","EPOCH":"2021-09-01T17:02:15.578592","SITE":"AFETR","CENTER_NAME":"EARTH","REV_AT_EPOCH":"5081","ELEMENT_SET_NO":"999","MEAN_MOTION_DDOT":"0.0000000000000","OBJECT_NAME":"STARLINK-1672","MEAN_MOTION":"15.06400822","CLASSIFICATION_TYPE":"U","INCLINATION":"53.0564","TLE_LINE1":"1 46537U 20070F   21244.70990253  .00000158  00000-0  29496-4 0  9990","TIME_SYSTEM":"UTC","TLE_LINE2":"2 46537  53.0564  23.6744 0001143 111.4349 248.6761 15.06400822 50814","ARG_OF_PERICENTER":"111.4349","RCS_SIZE":"LARGE"},{"INCLINATION":"53.0551","CLASSIFICATION_TYPE":"U","TLE_LINE1":"1 46538U 20070G   21244.82046673  .00001237  00000-0  10190-3 0  9991","TIME_SYSTEM":"UTC","TLE_LINE2":"2 46538  53.0551  23.1834 0001095 114.2884 245.8219 15.06396079 50823","ARG_OF_PERICENTER":"114.2884","RCS_SIZE":"LARGE","CENTER_NAME":"EARTH","SITE":"AFETR","REV_AT_EPOCH":"5082","ELEMENT_SET_NO":"999","MEAN_MOTION_DDOT":"0.0000000000000","OBJECT_NAME":"STARLINK-1678","MEAN_MOTION":"15.06396079","PERIOD":"95.592","OBJECT_TYPE":"PAYLOAD","ECCENTRICITY":"0.00010950","EPOCH":"2021-09-01T19:41:28.325472","SEMIMAJOR_AXIS":"6925.361","APOAPSIS":"547.984","BSTAR":"0.00010190000000","GP_ID":"183927531","MEAN_ELEMENT_THEORY":"SGP4","COUNTRY_CODE":"US","MEAN_MOTION_DOT":"0.00001237","FILE":"3107096","REF_FRAME":"TEME","LAUNCH_DATE":"2020-10-06","RA_OF_ASC_NODE":"23.1834","MEAN_ANOMALY":"245.8219","PERIAPSIS":"546.467","NORAD_CAT_ID":"46538","OBJECT_ID":"2020-070G","DECAY_DATE":null,"EPHEMERIS_TYPE":"0"},{"MEAN_ELEMENT_THEORY":"SGP4","COUNTRY_CODE":"US","BSTAR":"0.00012382000000","GP_ID":"183926779","LAUNCH_DATE":"2020-10-06","MEAN_MOTION_DOT":"0.00001562","FILE":"3107096","REF_FRAME":"TEME","PERIAPSIS":"544.159","RA_OF_ASC_NODE":"23.2133","MEAN_ANOMALY":"244.0310","DECAY_DATE":null,"EPHEMERIS_TYPE":"0","NORAD_CAT_ID":"46539","OBJECT_ID":"2020-070H","RCS_SIZE":"LARGE","CLASSIFICATION_TYPE":"U","INCLINATION":"53.0564","TLE_LINE1":"1 46539U 20070H   21244.81310809  .00001562  00000-0  12382-3 0  9992","TIME_SYSTEM":"UTC","TLE_LINE2":"2 46539  53.0564  23.2133 0004435 116.1135 244.0310 15.06394547 50834","ARG_OF_PERICENTER":"116.1135","MEAN_MOTION":"15.06394547","SITE":"AFETR","CENTER_NAME":"EARTH","ELEMENT_SET_NO":"999","REV_AT_EPOCH":"5083","MEAN_MOTION_DDOT":"0.0000000000000","OBJECT_NAME":"STARLINK-1684","ECCENTRICITY":"0.00044350","EPOCH":"2021-09-01T19:30:52.538976","PERIOD":"95.592","OBJECT_TYPE":"PAYLOAD","APOAPSIS":"550.302","SEMIMAJOR_AXIS":"6925.365"}];
